GLOBALSTAR M035         
1 25851U 99037A   25167.42672855 -.00000044  00000+0  75743-3 0  9996
2 25851  51.9971  56.6609 0014032 343.1082 192.0842 11.04538367 96175
GLOBALSTAR M032         
1 25852U 99037B   25167.52816388 -.00000059  00000+0  24679-3 0  9997
2 25852  51.9939 241.6799 0012523 165.4514 194.6649 11.19061487134710
GLOBALSTAR M051         
1 25853U 99037C   25167.35458550 -.00000077  00000+0 -12341-3 0  9996
2 25853  51.9815  42.8999 0000354 133.4382 226.6458 11.42205058132299
GLOBALSTAR M030         
1 25854U 99037D   25167.39177037 -.00000080  00000+0 -10645-3 0  9998
2 25854  51.9852 208.9688 0002874  44.0959 316.0087 11.55108407149954
GLOBALSTAR M048         
1 25872U 99041A   25167.39806000 -.00000056  00000+0  38358-3 0  9995
2 25872  51.9392 337.7995 0013469 180.1728 188.9552 11.33857334124898
GLOBALSTAR M026         
1 25873U 99041B   25167.32433509 -.00000134  00000+0 -25752-2 0  9990
2 25873  51.9969 174.8596 0002434 270.7394 102.3295 11.06840937148397
GLOBALSTAR M043         
1 25874U 99041C   25167.49486015 -.00000044  00000+0  73278-3 0  9995
2 25874  51.9405  85.1850 0013691 313.0764 218.2432 11.25694401122799
